H1 CPF 01  gfz 2022 10 19 12  7922 tandemx   
H2 1003001  6202 36605    2022 10 19 12 59 42 2022 10 24 00 00 42   120 1 1  0 0 0
H9
10 0 59872  10062.000000  0   -4143293.231  -5092309.671  -2097488.543
10 0 59872  10182.000000  0   -4420723.043  -5143271.068  -1220115.878
10 0 59872  10302.000000  0   -4621034.819  -5100248.150   -321289.441
10 0 59872  10422.000000  0   -4739050.198  -4965326.489    583188.643
10 0 59872  10542.000000  0   -4771092.176  -4742293.702   1477397.329
10 0 59872  10662.000000  0   -4715082.056  -4436547.439   2345586.667
10 0 59872  10782.000000  0   -4570603.584  -4054970.726   3172464.029
10 0 59872  10902.000000  0   -4338933.438  -3605778.412   3943470.677
10 0 59872  11022.000000  0   -4023037.059  -3098338.533   4645043.763
10 0 59872  11142.000000  0   -3627529.272  -2542972.472   5264856.684
10 0 59872  11262.000000  0   -3158603.117  -1950741.365   5792033.413
10 0 59872  11382.000000  0   -2623928.479  -1333223.327   6217336.400
10 0 59872  11502.000000  0   -2032521.573   -702283.948   6533324.716
10 0 59872  11622.000000  0   -1394587.421    -69845.297   6734478.173
10 0 59872  11742.000000  0    -721340.596    552338.629   6817285.981
10 0 59872  11862.000000  0     -24808.162   1152898.989   6780304.331
10 0 59872  11982.000000  0     682384.794   1721059.469   6624180.345
10 0 59872  12102.000000  0    1387243.636   2246829.883   6351641.285
10 0 59872  12222.000000  0    2076642.110   2721181.689   5967449.190
10 0 59872  12342.000000  0    2737566.391   3136204.262   5478323.540
10 0 59872  12462.000000  0    3357362.985   3485240.336   4892830.522
10 0 59872  12582.000000  0    3923984.221   3762996.348   4221237.017
10 0 59872  12702.000000  0    4426225.007   3965625.603   3475336.634
10 0 59872  12822.000000  0    4853952.893   4090785.468   2668245.451
10 0 59872  12942.000000  0    5198317.107   4137661.434   1814168.540
10 0 59872  13062.000000  0    5451936.563   4106960.921    928146.950
10 0 59872  13182.000000  0    5609060.119   4000875.530     25785.647
10 0 59872  13302.000000  0    5665694.540   3823012.527   -877030.389
10 0 59872  13422.000000  0    5619696.816   3578297.264  -1764424.467
10 0 59872  13542.000000  0    5470829.162   3272849.180  -2620815.239
10 0 59872  13662.000000  0    5220775.288   2913835.295  -3431195.460
10 0 59872  13782.000000  0    4873119.523   2509305.715  -4181397.623
10 0 59872  13902.000000  0    4433287.826   2068013.984  -4858342.348
10 0 59872  14022.000000  0    3908452.733   1599226.790  -5450260.960
10 0 59872  14142.000000  0    3307407.535   1112530.136  -5946891.649
10 0 59872  14262.000000  0    2640411.307    617634.904  -6339647.525
10 0 59872  14382.000000  0    1919008.328    124185.691  -6621753.116
10 0 59872  14502.000000  0    1155827.635   -358422.908  -6788350.027
10 0 59872  14622.000000  0     364363.601   -821221.229  -6836573.244
10 0 59872  14742.000000  0    -441259.488  -1255826.901  -6765593.430
10 0 59872  14862.000000  0   -1246532.630  -1654592.005  -6576629.244
10 0 59872  14982.000000  0   -2036817.331  -2010734.753  -6272929.639
10 0 59872  15102.000000  0   -2797605.914  -2318453.278  -5859723.376
10 0 59872  15222.000000  0   -3514782.586  -2573019.742  -5344138.803
10 0 59872  15342.000000  0   -4174884.905  -2770854.914  -4735093.456
10 0 59872  15462.000000  0   -4765359.450  -2909580.306  -4043150.721
10 0 59872  15582.000000  0   -5274805.640  -2988046.431  -3280346.666
10 0 59872  15702.000000  0   -5693204.007  -3006336.775  -2459988.370
10 0 59872  15822.000000  0   -6012122.658  -2965746.485  -1596425.576
10 0 59872  15942.000000  0   -6224896.216  -2868736.123   -704800.044
10 0 59872  16062.000000  0   -6326772.787  -2718860.801    199223.468
10 0 59872  16182.000000  0   -6315024.543  -2520676.252   1099738.601
10 0 59872  16302.000000  0   -6189018.418  -2279624.104   1980886.686
10 0 59872  16422.000000  0   -5950242.453  -2001898.578   2827145.812
10 0 59872  16542.000000  0   -5602290.376  -1694298.749   3623611.578
10 0 59872  16662.000000  0   -5150803.670  -1364070.081   4356267.448
10 0 59872  16782.000000  0   -4603370.572  -1018738.646   5012234.316
10 0 59872  16902.000000  0   -3969390.114   -665944.052   5579995.458
10 0 59872  17022.000000  0   -3259903.006   -313273.883   6049596.984
10 0 59872  17142.000000  0   -2487390.838     31897.582   6412818.495
10 0 59872  17262.000000  0   -1665549.224    362560.946   6663310.664
10 0 59872  17382.000000  0    -809040.805    672211.090   6796699.824
10 0 59872  17502.000000  0      66767.686    954973.576   6810659.210
10 0 59872  17622.000000  0     946080.595   1205715.056   6704946.628
10 0 59872  17742.000000  0    1812957.267   1420136.616   6481408.540
10 0 59872  17862.000000  0    2651600.142   1594847.748   6143949.521
10 0 59872  17982.000000  0    3446642.919   1727420.027   5698469.027
10 0 59872  18102.000000  0    4183435.149   1816419.814   5152763.550
10 0 59872  18222.000000  0    4848315.453   1861419.725   4516396.218
10 0 59872  18342.000000  0    5428872.440   1862989.401   3800536.587
10 0 59872  18462.000000  0    5914187.179   1822663.647   3017765.957
10 0 59872  18582.000000  0    6295045.780   1742889.437   2181856.016
10 0 59872  18702.000000  0    6564124.535   1626952.871   1307525.130
10 0 59872  18822.000000  0    6716137.603   1478887.364    410172.532
10 0 59872  18942.000000  0    6747944.830   1303366.092   -494400.148
10 0 59872  19062.000000  0    6658616.730   1105580.825  -1390276.982
10 0 59872  19182.000000  0    6449453.639    891109.176  -2261715.579
10 0 59872  19302.000000  0    6123961.652    665774.921  -3093430.474
10 0 59872  19422.000000  0    5687783.988    435505.927  -3870865.841
10 0 59872  19542.000000  0    5148590.922    206192.355  -4580451.706
10 0 59872  19662.000000  0    4515930.998    -16451.581  -5209837.251
10 0 59872  19782.000000  0    3801050.410   -227018.164  -5748097.959
10 0 59872  19902.000000  0    3016684.606   -420526.708  -6185916.303
10 0 59872  20022.000000  0    2176824.478   -592532.180  -6515732.665
10 0 59872  20142.000000  0    1296464.488   -739219.309  -6731863.331
10 0 59872  20262.000000  0     391337.224   -857481.630  -6830589.355
10 0 59872  20382.000000  0    -522364.146   -944982.874  -6810213.341
10 0 59872  20502.000000  0   -1428268.430  -1000200.925  -6671084.869
10 0 59872  20622.000000  0   -2310113.155  -1022453.684  -6415595.685
10 0 59872  20742.000000  0   -3152029.980  -1011906.254  -6048141.730
10 0 59872  20862.000000  0   -3938824.043   -969559.870  -5575056.218
10 0 59872  20982.000000  0   -4656248.121   -897222.481  -5004512.377
10 0 59872  21102.000000  0   -5291263.612   -797460.952  -4346393.317
10 0 59872  21222.000000  0   -5832283.974   -673536.366  -3612132.195
10 0 59872  21342.000000  0   -6269396.903   -529322.626  -2814522.715
10 0 59872  21462.000000  0   -6594558.169   -369209.667  -1967501.590
10 0 59872  21582.000000  0   -6801752.958   -197994.512  -1085907.516
10 0 59872  21702.000000  0   -6887120.743    -20760.624   -185218.110
10 0 59872  21822.000000  0   -6849034.858    157250.553    718728.563
10 0 59872  21942.000000  0   -6688139.295    330772.166   1610019.056
10 0 59872  22062.000000  0   -6407340.658    494645.290   2472953.794
10 0 59872  22182.000000  0   -6011753.692    643949.951   3292332.935
10 0 59872  22302.000000  0   -5508601.607    774130.505   4053731.869
10 0 59872  22422.000000  0   -4907074.933    881111.795   4743759.476
10 0 59872  22542.000000  0   -4218153.287    961403.201   5350294.805
10 0 59872  22662.000000  0   -3454395.390   1012188.399   5862697.765
10 0 59872  22782.000000  0   -2629701.822   1031398.892   6271992.536
10 0 59872  22902.000000  0   -1759054.810   1017769.844   6571020.335
10 0 59872  23022.000000  0    -858240.022    970877.800   6754558.197
10 0 59872  23142.000000  0      56441.599    891158.591   6819403.378
10 0 59872  23262.000000  0     968468.239    779905.644   6764425.232
10 0 59872  23382.000000  0    1861394.358    639249.129   6590583.668
10 0 59872  23502.000000  0    2719146.043    472115.956   6300913.712
10 0 59872  23622.000000  0    3526310.777    282171.057   5900476.865
10 0 59872  23742.000000  0    4268417.129     73740.640   5396277.736
10 0 59872  23862.000000  0    4932198.523   -148281.148   4797147.402
10 0 59872  23982.000000  0    5505837.068   -378540.555   4113594.423
10 0 59872  24102.000000  0    5979183.214   -611345.301   3357625.225
10 0 59872  24222.000000  0    6343946.292   -840795.862   2542534.878
10 0 59872  24342.000000  0    6593849.520  -1060923.971   1682670.887
10 0 59872  24462.000000  0    6724744.827  -1265835.001    793176.490
10 0 59872  24582.000000  0    6734688.143  -1449851.463   -110281.859
10 0 59872  24702.000000  0    6623969.672  -1607653.488  -1011800.352
10 0 59872  24822.000000  0    6395097.406  -1734411.539  -1895526.546
10 0 59872  24942.000000  0    6052736.842  -1825909.168  -2745946.412
10 0 59872  25062.000000  0    5603607.240  -1878652.226  -3548161.962
10 0 59872  25182.000000  0    5056339.287  -1889961.998  -4288153.953
10 0 59872  25302.000000  0    4421298.507  -1858050.056  -4953025.398
10 0 59872  25422.000000  0    3710378.043  -1782074.156  -5531221.710
10 0 59872  25542.000000  0    2936766.157  -1662173.765  -6012722.652
10 0 59872  25662.000000  0    2114696.318  -1499484.281  -6389204.666
10 0 59872  25782.000000  0    1259183.546  -1296130.243  -6654174.711
10 0 59872  25902.000000  0     385750.543  -1055198.490  -6803071.227
10 0 59872  26022.000000  0    -489849.741   -780691.835  -6833334.026
10 0 59872  26142.000000  0   -1351911.720   -477463.572  -6744443.096
10 0 59872  26262.000000  0   -2185052.580   -151133.566  -6537926.757
10 0 59872  26382.000000  0   -2974480.415    192013.003  -6217337.089
10 0 59872  26502.000000  0   -3706251.076    545142.299  -5788195.712
99
